EAGLET-I                
1 43790U 18099AJ  26068.68676861  .00006017  00000+0  35262-3 0  9994
2 43790  97.4369 120.9821 0010486 336.8524  23.2233 15.12108144397298
STARLINK-4525           
1 53401U 22097P   26068.41798429 -.00000459  00000+0 -10761-4 0  9997
2 53401  53.2167 125.3431 0001430  93.5230 266.5925 15.08842188198477
